$$SOE
2460161.500000000, A.D. 2023-Aug-05 00:00:00.0000, 4.674987439424126E+09, 2.874910694491858E+09, 2.078668869284573E+08,
2460168.500000000, A.D. 2023-Aug-12 00:00:00.0000, 4.673675107987142E+09, 2.877519686285348E+09, 2.084523956140640E+08,
2460175.500000000, A.D. 2023-Aug-19 00:00:00.0000, 4.672361316255583E+09, 2.880127803280486E+09, 2.090378456334115E+08,
2460182.500000000, A.D. 2023-Aug-26 00:00:00.0000, 4.671046063128818E+09, 2.882735041987192E+09, 2.096232369189161E+08,
2460189.500000000, A.D. 2023-Sep-02 00:00:00.0000, 4.669729347789799E+09, 2.885341398535879E+09, 2.102085693803642E+08,
2460196.500000000, A.D. 2023-Sep-09 00:00:00.0000, 4.668411169696435E+09, 2.887946868583597E+09, 2.107938428949717E+08,
2460203.500000000, A.D. 2023-Sep-16 00:00:00.0000, 4.667091528755008E+09, 2.890551447049647E+09, 2.113790572659494E+08,
2460210.500000000, A.D. 2023-Sep-23 00:00:00.0000, 4.665770426092061E+09, 2.893155127967436E+09, 2.119642121348907E+08,
2460217.500000000, A.D. 2023-Sep-30 00:00:00.0000, 4.664447865085172E+09, 2.895757905643291E+09, 2.125493069765271E+08,
2460224.500000000, A.D. 2023-Oct-07 00:00:00.0000, 4.663123850298886E+09, 2.898359776579417E+09, 2.131343413475153E+08,
2460231.500000000, A.D. 2023-Oct-14 00:00:00.0000, 4.661798385365704E+09, 2.900960738847837E+09, 2.137193150232828E+08,
2460238.500000000, A.D. 2023-Oct-21 00:00:00.0000, 4.660471473040716E+09, 2.903560790517998E+09, 2.143042278579562E+08,
2460245.500000000, A.D. 2023-Oct-28 00:00:00.0000, 4.659143116005553E+09, 2.906159929398216E+09, 2.148890796829520E+08,
2460252.500000000, A.D. 2023-Nov-04 00:00:00.0000, 4.657813317171590E+09, 2.908758153320528E+09, 2.154738702961891E+08,
2460259.500000000, A.D. 2023-Nov-11 00:00:00.0000, 4.656482079659994E+09, 2.911355460369101E+09, 2.160585994768611E+08,
2460266.500000000, A.D. 2023-Nov-18 00:00:00.0000, 4.655149406678104E+09, 2.913951848987864E+09, 2.166432670006518E+08,
2460273.500000000, A.D. 2023-Nov-25 00:00:00.0000, 4.653815301364970E+09, 2.916547317989963E+09, 2.172278726507621E+08,
2460280.500000000, A.D. 2023-Dec-02 00:00:00.0000, 4.652479766634233E+09, 2.919141866457785E+09, 2.178124162214479E+08,
2460287.500000000, A.D. 2023-Dec-09 00:00:00.0000, 4.651142805092183E+09, 2.921735493474707E+09, 2.183968975022107E+08,
2460294.500000000, A.D. 2023-Dec-16 00:00:00.0000, 4.649804419318528E+09, 2.924328197701079E+09, 2.189813162173444E+08,
2460301.500000000, A.D. 2023-Dec-23 00:00:00.0000, 4.648464612858341E+09, 2.926919977481914E+09, 2.195656719450054E+08,
2460308.500000000, A.D. 2023-Dec-30 00:00:00.0000, 4.647123390584949E+09, 2.929510832535533E+09, 2.201499642243739E+08,
2460315.500000000, A.D. 2024-Jan-06 00:00:00.0000, 4.645780756661322E+09, 2.932100764862453E+09, 2.207341928203841E+08,
2460322.500000000, A.D. 2024-Jan-13 00:00:00.0000, 4.644436713272711E+09, 2.934689777067608E+09, 2.213183577071180E+08,
2460329.500000000, A.D. 2024-Jan-20 00:00:00.0000, 4.643091261354075E+09, 2.937277871180478E+09, 2.219024589094679E+08,
2460336.500000000, A.D. 2024-Jan-27 00:00:00.0000, 4.641744401283585E+09, 2.939865048625344E+09, 2.224864964421927E+08,
2460343.500000000, A.D. 2024-Feb-03 00:00:00.0000, 4.640396133113798E+09, 2.942451310393020E+09, 2.230704703079107E+08,
2460350.500000000, A.D. 2024-Feb-10 00:00:00.0000, 4.639046456617906E+09, 2.945036657122975E+09, 2.236543805045710E+08,
2460357.500000000, A.D. 2024-Feb-17 00:00:00.0000, 4.637695371289725E+09, 2.947621089103758E+09, 2.242382270301641E+08,
2460364.500000000, A.D. 2024-Feb-24 00:00:00.0000, 4.636342876333375E+09, 2.950204606206494E+09, 2.248220098824327E+08,
2460371.500000000, A.D. 2024-Mar-02 00:00:00.0000, 4.634988970672005E+09, 2.952787207718987E+09, 2.254057290481243E+08,
2460378.500000000, A.D. 2024-Mar-09 00:00:00.0000, 4.633633653114358E+09, 2.955368892017502E+09, 2.259893844638400E+08,
2460385.500000000, A.D. 2024-Mar-16 00:00:00.0000, 4.632276923074494E+09, 2.957949656273563E+09, 2.265729759282862E+08,
2460392.500000000, A.D. 2024-Mar-23 00:00:00.0000, 4.630918781741085E+09, 2.960529497304745E+09, 2.271565030660207E+08,
2460399.500000000, A.D. 2024-Mar-30 00:00:00.0000, 4.629559231455133E+09, 2.963108413542716E+09, 2.277399655460625E+08,
2460406.500000000, A.D. 2024-Apr-06 00:00:00.0000, 4.628198273552165E+09, 2.965686404750896E+09, 2.283233632566441E+08,
2460413.500000000, A.D. 2024-Apr-13 00:00:00.0000, 4.626835908220009E+09, 2.968263470328159E+09, 2.289066961787643E+08,
2460420.500000000, A.D. 2024-Apr-20 00:00:00.0000, 4.625472135420023E+09, 2.970839608875233E+09, 2.294899642646202E+08,
2460427.500000000, A.D. 2024-Apr-27 00:00:00.0000, 4.624106955354753E+09, 2.973414818462420E+09, 2.300731674142171E+08,
2460434.500000000, A.D. 2024-May-04 00:00:00.0000, 4.622740368569931E+09, 2.975989096895334E+09, 2.306563054846892E+08,
2460441.500000000, A.D. 2024-May-11 00:00:00.0000, 4.621372375929152E+09, 2.978562441877030E+09, 2.312393783022368E+08,
2460448.500000000, A.D. 2024-May-18 00:00:00.0000, 4.620002978543236E+09, 2.981134851088431E+09, 2.318223856710728E+08,
2460455.500000000, A.D. 2024-May-25 00:00:00.0000, 4.618632177678958E+09, 2.983706322180229E+09, 2.324053273767101E+08,
2460462.500000000, A.D. 2024-Jun-01 00:00:00.0000, 4.617259974707036E+09, 2.986276852619164E+09, 2.329882031736195E+08,
2460469.500000000, A.D. 2024-Jun-08 00:00:00.0000, 4.615886371335696E+09, 2.988846439366056E+09, 2.335710127330382E+08,
2460476.500000000, A.D. 2024-Jun-15 00:00:00.0000, 4.614511370529369E+09, 2.991415078930922E+09, 2.341537555590873E+08,
2460483.500000000, A.D. 2024-Jun-22 00:00:00.0000, 4.613134977107278E+09, 2.993982768980575E+09, 2.347364310617086E+08,
2460490.500000000, A.D. 2024-Jun-29 00:00:00.0000, 4.611757195900297E+09, 2.996549509678107E+09, 2.353190388324832E+08,
2460497.500000000, A.D. 2024-Jul-06 00:00:00.0000, 4.610378030111096E+09, 2.999115302283246E+09, 2.359015786789899E+08,
2460504.500000000, A.D. 2024-Jul-13 00:00:00.0000, 4.608997481826785E+09, 3.001680147837822E+09, 2.364840504698781E+08,
2460511.500000000, A.D. 2024-Jul-20 00:00:00.0000, 4.607615552698455E+09, 3.004244047085071E+09, 2.370664540667348E+08,
2460518.500000000, A.D. 2024-Jul-27 00:00:00.0000, 4.606232244131580E+09, 3.006807000663355E+09, 2.376487893245285E+08,
2460525.500000000, A.D. 2024-Aug-03 00:00:00.0000, 4.604847557260226E+09, 3.009369009199459E+09, 2.382310561048774E+08,
2460532.500000000, A.D. 2024-Aug-10 00:00:00.0000, 4.603461492870846E+09, 3.011930073297188E+09, 2.388132542864339E+08,
2460539.500000000, A.D. 2024-Aug-17 00:00:00.0000, 4.602074051322982E+09, 3.014490193443290E+09, 2.393953837696278E+08,
2460546.500000000, A.D. 2024-Aug-24 00:00:00.0000, 4.600685232494716E+09, 3.017049369808810E+09, 2.399774444711540E+08,
2460553.500000000, A.D. 2024-Aug-31 00:00:00.0000, 4.599295035868487E+09, 3.019607601884745E+09, 2.405594362923189E+08,
2460560.500000000, A.D. 2024-Sep-07 00:00:00.0000, 4.597903461122775E+09, 3.022164888078749E+09, 2.411413590377898E+08,
2460567.500000000, A.D. 2024-Sep-14 00:00:00.0000, 4.596510509314898E+09, 3.024721226269044E+09, 2.417232123580617E+08,
2460574.500000000, A.D. 2024-Sep-21 00:00:00.0000, 4.595116182626090E+09, 3.027276615728375E+09, 2.423049959352341E+08,
2460581.500000000, A.D. 2024-Sep-28 00:00:00.0000, 4.593720482181375E+09, 3.029831057190499E+09, 2.428867096928579E+08,
2460588.500000000, A.D. 2024-Oct-05 00:00:00.0000, 4.592323407613914E+09, 3.032384551061061E+09, 2.434683536932544E+08,
2460595.500000000, A.D. 2024-Oct-12 00:00:00.0000, 4.590924958013244E+09, 3.034937096753054E+09, 2.440499279988307E+08,
2460602.500000000, A.D. 2024-Oct-19 00:00:00.0000, 4.589525132506435E+09, 3.037488692876204E+09, 2.446314326358004E+08,
2460609.500000000, A.D. 2024-Oct-26 00:00:00.0000, 4.588123930439883E+09, 3.040039337479080E+09, 2.452128675977707E+08,
2460616.500000000, A.D. 2024-Nov-02 00:00:00.0000, 4.586721351419121E+09, 3.042589028195757E+09, 2.457942328534743E+08,
2460623.500000000, A.D. 2024-Nov-09 00:00:00.0000, 4.585317395303416E+09, 3.045137762318052E+09, 2.463755283515015E+08,
2460630.500000000, A.D. 2024-Nov-16 00:00:00.0000, 4.583912062181214E+09, 3.047685536793852E+09, 2.469567540197337E+08,
2460637.500000000, A.D. 2024-Nov-23 00:00:00.0000, 4.582505352373472E+09, 3.050232348101937E+09, 2.475379097511561E+08,
2460644.500000000, A.D. 2024-Nov-30 00:00:00.0000, 4.581097266673349E+09, 3.052778191960908E+09, 2.481189953535430E+08,
2460651.500000000, A.D. 2024-Dec-07 00:00:00.0000, 4.579687807241795E+09, 3.055323063293065E+09, 2.487000104590137E+08,
2460658.500000000, A.D. 2024-Dec-14 00:00:00.0000, 4.578276978470481E+09, 3.057866957667362E+09, 2.492809545567834E+08,
2460665.500000000, A.D. 2024-Dec-21 00:00:00.0000, 4.576864785493610E+09, 3.060409872980863E+09, 2.498618272604983E+08,
2460672.500000000, A.D. 2024-Dec-28 00:00:00.0000, 4.575451232321113E+09, 3.062951808411379E+09, 2.504426283869441E+08,
2460679.500000000, A.D. 2025-Jan-04 00:00:00.0000, 4.574036322190524E+09, 3.065492763017601E+09, 2.510233578022692E+08,
2460686.500000000, A.D. 2025-Jan-11 00:00:00.0000, 4.572620058316379E+09, 3.068032735646560E+09, 2.516040153386710E+08,
2460693.500000000, A.D. 2025-Jan-18 00:00:00.0000, 4.571202444120285E+09, 3.070571725229667E+09, 2.521846007908006E+08,
2460700.500000000, A.D. 2025-Jan-25 00:00:00.0000, 4.569783483185327E+09, 3.073109730992792E+09, 2.527651139310353E+08,
2460707.500000000, A.D. 2025-Feb-01 00:00:00.0000, 4.568363179124415E+09, 3.075646752550254E+09, 2.533455545240467E+08,
2460714.500000000, A.D. 2025-Feb-08 00:00:00.0000, 4.566941535421110E+09, 3.078182789902378E+09, 2.539259223371518E+08,
2460721.500000000, A.D. 2025-Feb-15 00:00:00.0000, 4.565518555271832E+09, 3.080717843316617E+09, 2.545062171423709E+08,
2460728.500000000, A.D. 2025-Feb-22 00:00:00.0000, 4.564094241528705E+09, 3.083251913028267E+09, 2.550864386960356E+08,
2460735.500000000, A.D. 2025-Mar-01 00:00:00.0000, 4.562668597078185E+09, 3.085784998826278E+09, 2.556665866706188E+08,
$$EOE